STARLINK-34631          
1 64855U 25152P   26177.85874440  .00002492  00000+0  17659-3 0  9993
2 64855  97.3145  31.7684 0002098  82.4369 277.7097 15.05655256 51846
STARLINK-34578          
1 64856U 25152Q   26177.55691856  .00002803  00000+0  19807-3 0  9992
2 64856  97.3109  31.5717 0002039  83.0181 277.1279 15.05654512 51802
STARLINK-34683          
1 64857U 25152R   26177.84767046  .00006491  00000+0  45326-3 0  9992
2 64857  97.3108  31.7866 0002590  81.9706 278.1816 15.05658673 51845
STARLINK-34654          
1 64858U 25152S   26177.49323041  .00003616  00000+0  25440-3 0  9998
2 64858  97.3141  31.4904 0001287  77.6967 282.4405 15.05657169 51791
STARLINK-34575          
1 64859U 25152T   26177.48768882  .00003872  00000+0  27202-3 0  9996
2 64859  97.3091  31.5062 0001510  76.5969 283.5427 15.05663667 51797
STARLINK-34570          
1 64860U 25152U   26177.87812489  .00003923  00000+0  27559-3 0  9996
2 64860  97.3101  31.7502 0002723  84.0129 276.1409 15.05661105 51840
STARLINK-34651          
1 64861U 25152V   26177.86427765  .00001545  00000+0  11097-3 0  9993
2 64861  97.3093  31.7811 0002297  79.6087 280.5400 15.05657596 51842
STARLINK-34684          
1 64862U 25152W   26177.83936270  .00003662  00000+0  25758-3 0  9998
2 64862  97.3113  31.8014 0001775  90.9153 269.2278 15.05652226 51844
STARLINK-34690          
1 64863U 25152X   26177.83105739  .00003575  00000+0  25153-3 0  9999
2 64863  97.3088  31.8098 0002028  90.2804 269.8656 15.05660217 51841
STARLINK-34628          
1 64864U 25152Y   26177.84213256  .00003541  00000+0  24917-3 0  9995
2 64864  97.3098  31.7909 0002481  88.4759 271.6753 15.05658971 51847
STARLINK-34544          
1 64865U 25152Z   26177.83382460  .00003763  00000+0  26447-3 0  9995
2 64865  97.3091  31.8000 0002246  89.4781 270.6704 15.05661991 51840
STARLINK-34647          
1 64904U 25157A   26177.76463959  .00016813  00000+0  50774-3 0  9999
2 64904  53.1556 198.3234 0000876  81.2978 278.8123 15.34392828 52829
STARLINK-34273          
1 64905U 25157B   26177.36540707  .00022970  00000+0  68881-3 0  9992
2 64905  53.1561 200.0916 0000801  51.5028 308.6046 15.34403220 52788
STARLINK-34713          
1 64906U 25157C   26177.79408371  .00032180  00000+0  95918-3 0  9995
2 64906  53.1588 198.5046 0001531  85.4656 274.6522 15.34409644 52784
STARLINK-34712          
1 64907U 25157D   26177.75996044  .00020184  00000+0  60707-3 0  9990
2 64907  53.1571 196.8737 0001339  90.3658 269.7498 15.34391027 52858
STARLINK-34702          
1 64908U 25157E   26177.76978818  .00013471  00000+0  44491-3 0  9994
2 64908  53.1563 198.3496 0001069  83.5877 276.5247 15.31712168 52832
STARLINK-34687          
1 64909U 25157F   26177.34026891  .00045532  00000+0  13494-2 0  9995
2 64909  53.1589 200.6486 0001540  35.8199 324.2906 15.34426660 52710
STARLINK-34642          
1 64910U 25157G   26177.35495059  .00021233  00000+0  69388-3 0  9990
2 64910  53.1564 200.0323 0001114  79.2435 280.8691 15.31707605 52773
STARLINK-34718          
1 64911U 25157H   26177.34235057  .00025728  00000+0  76964-3 0  9991
2 64911  53.1583 200.6618 0001242  90.7646 269.3499 15.34414594 52764
STARLINK-34711          
1 64912U 25157J   26177.76253568  .00027127  00000+0  81113-3 0  9992
2 64912  53.1569 198.3065 0001017  79.3337 280.7780 15.34398728 52836
STARLINK-34659          
1 64913U 25157K   26177.76512362  .00021160  00000+0  69140-3 0  9990
2 64913  53.1562 198.3215 0000985  88.2063 271.9051 15.31713804 52785
STARLINK-34571          
1 64914U 25157L   26177.78568109  .00024257  00000+0  72685-3 0  9991
2 64914  53.1580 198.4487 0001041  79.1644 280.9476 15.34394644 52787
STARLINK-34636          
1 64915U 25157M   26177.76043098  .00015208  00000+0  46030-3 0  9996
2 64915  53.1578 198.2871 0001244  65.5076 294.6057 15.34400825 52835
STARLINK-34695          
1 64916U 25157N   26177.34073322  .00021871  00000+0  65722-3 0  9996
2 64916  53.1556 192.8439 0001239  95.2921 264.8223 15.34367723 52872
STARLINK-34653          
1 64917U 25157P   26177.34572060  .00036077  00000+0  11679-2 0  9995
2 64917  53.1568 200.6763 0001333  92.2055 267.9099 15.31721749 52711
STARLINK-34611          
1 64918U 25157Q   26177.75201492  .00015173  00000+0  45911-3 0  9990
2 64918  53.1560 198.2393 0000975  62.5076 297.6026 15.34410976 52832
STARLINK-34599          
1 64919U 25157R   26177.35707669  .00021252  00000+0  63760-3 0  9991
2 64919  53.1574 200.7377 0001389  78.4736 281.6422 15.34435827 52765
STARLINK-34069          
1 64920U 25157S   26177.77936892  .00019377  00000+0  58328-3 0  9990
2 64920  53.1572 198.4101 0001139  91.2835 268.8298 15.34392634 52833
STARLINK-34699          
1 64921U 25157T   26177.74991126  .00024537  00000+0  73498-3 0  9998
2 64921  53.1552 198.2267 0001251  89.4704 270.6442 15.34399309 52830
STARLINK-34700          
1 64922U 25157U   26177.48104007  .00025631  00000+0  76731-3 0  9993
2 64922  53.1581 200.1005 0001002  97.4893 262.6224 15.34392047 52738
