OBJECT_NAME,OBJECT_ID,EPOCH,MEAN_MOTION,ECCENTRICITY,INCLINATION,RA_OF_ASC_NODE,ARG_OF_PERICENTER,MEAN_ANOMALY,EPHEMERIS_TYPE,CLASSIFICATION_TYPE,NORAD_CAT_ID,ELEMENT_SET_NO,REV_AT_EPOCH,BSTAR,MEAN_MOTION_DOT,MEAN_MOTION_DDOT
STARLINK-34631,2025-152P,2026-06-26T20:36:35.516160,15.05655256,.00020987,97.3145,31.7684,82.4369,277.7097,0,U,64855,999,5184,.17659285E-3,.2492E-4,0
STARLINK-34578,2025-152Q,2026-06-26T13:21:57.763584,15.05654512,.0002039,97.3109,31.5717,83.0181,277.1279,0,U,64856,999,5180,.19807E-3,.2803E-4,0
STARLINK-34683,2025-152R,2026-06-26T20:20:38.727744,15.05658673,.00025909,97.3108,31.7866,81.9706,278.1816,0,U,64857,999,5184,.45326345E-3,.6491E-4,0
STARLINK-34654,2025-152S,2026-06-26T11:50:15.107424,15.05657169,.0001287,97.3141,31.4904,77.6967,282.4405,0,U,64858,999,5179,.2544E-3,.3616E-4,0
STARLINK-34575,2025-152T,2026-06-26T11:42:16.314048,15.05663667,.000151,97.3091,31.5062,76.5969,283.5427,0,U,64859,999,5179,.27202E-3,.3872E-4,0
STARLINK-34570,2025-152U,2026-06-26T21:04:29.990496,15.05661105,.00027231,97.3101,31.7502,84.0129,276.1409,0,U,64860,999,5184,.27559068E-3,.3923E-4,0
STARLINK-34651,2025-152V,2026-06-26T20:44:33.588960,15.05657596,.00022971,97.3093,31.7811,79.6087,280.5400,0,U,64861,999,5184,.11097063E-3,.1545E-4,0
STARLINK-34684,2025-152W,2026-06-26T20:08:40.937280,15.05652226,.00017752,97.3113,31.8014,90.9153,269.2278,0,U,64862,999,5184,.25758061E-3,.3662E-4,0
STARLINK-34690,2025-152X,2026-06-26T19:56:43.358496,15.05660217,.00020283,97.3088,31.8098,90.2804,269.8656,0,U,64863,999,5184,.25152593E-3,.3575E-4,0
STARLINK-34628,2025-152Y,2026-06-26T20:12:40.253184,15.05658971,.00024816,97.3098,31.7909,88.4759,271.6753,0,U,64864,999,5184,.2491689E-3,.3541E-4,0
STARLINK-34544,2025-152Z,2026-06-26T20:00:42.445440,15.05661991,.00022469,97.3091,31.8000,89.4781,270.6704,0,U,64865,999,5184,.26447145E-3,.3763E-4,0
STARLINK-34647,2025-157A,2026-06-26T18:21:04.860576,15.34392828,.00008761,53.1556,198.3234,81.2978,278.8123,0,U,64904,999,5282,.50773587E-3,.16813E-3,0
STARLINK-34273,2025-157B,2026-06-26T08:46:11.170848,15.34403220,.0000801,53.1561,200.0916,51.5028,308.6046,0,U,64905,999,5278,.68881E-3,.2297E-3,0
STARLINK-34713,2025-157C,2026-06-26T19:03:28.832544,15.34409644,.0001531,53.1588,198.5046,85.4656,274.6522,0,U,64906,999,5278,.95917767E-3,.3218E-3,0
STARLINK-34712,2025-157D,2026-06-26T18:14:20.582016,15.34391027,.00013397,53.1571,196.8737,90.3658,269.7498,0,U,64907,999,5285,.60706667E-3,.20184E-3,0
STARLINK-34702,2025-157E,2026-06-26T18:28:29.698752,15.31712168,.0001069,53.1563,198.3496,83.5877,276.5247,0,U,64908,999,5283,.44490893E-3,.13471E-3,0
STARLINK-34687,2025-157F,2026-06-26T08:09:59.233824,15.34426660,.000154,53.1589,200.6486,35.8199,324.2906,0,U,64909,999,5271,.13494E-2,.45532E-3,0
STARLINK-34642,2025-157G,2026-06-26T08:31:07.730976,15.31707605,.0001114,53.1564,200.0323,79.2435,280.8691,0,U,64910,999,5277,.69388E-3,.21233E-3,0
STARLINK-34718,2025-157H,2026-06-26T08:12:59.089248,15.34414594,.0001242,53.1583,200.6618,90.7646,269.3499,0,U,64911,999,5276,.76964E-3,.25728E-3,0
STARLINK-34711,2025-157J,2026-06-26T18:18:03.082752,15.34398728,.00010177,53.1569,198.3065,79.3337,280.7780,0,U,64912,999,5283,.81113348E-3,.27127E-3,0
STARLINK-34659,2025-157K,2026-06-26T18:21:46.680768,15.31713804,.00009858,53.1562,198.3215,88.2063,271.9051,0,U,64913,999,5278,.69140157E-3,.2116E-3,0
STARLINK-34571,2025-157L,2026-06-26T18:51:22.846176,15.34394644,.00010419,53.1580,198.4487,79.1644,280.9476,0,U,64914,999,5278,.72684806E-3,.24257E-3,0
STARLINK-34636,2025-157M,2026-06-26T18:15:01.236672,15.34400825,.00012446,53.1578,198.2871,65.5076,294.6057,0,U,64915,999,5283,.46029568E-3,.15208E-3,0
STARLINK-34695,2025-157N,2026-06-26T08:10:39.350208,15.34367723,.0001239,53.1556,192.8439,95.2921,264.8223,0,U,64916,999,5287,.65722E-3,.21871E-3,0
STARLINK-34653,2025-157P,2026-06-26T08:17:50.259840,15.31721749,.0001333,53.1568,200.6763,92.2055,267.9099,0,U,64917,999,5271,.11679E-2,.36077E-3,0
STARLINK-34611,2025-157Q,2026-06-26T18:02:54.089088,15.34410976,.0000975,53.1560,198.2393,62.5076,297.6026,0,U,64918,999,5283,.45911286E-3,.15173E-3,0
STARLINK-34599,2025-157R,2026-06-26T08:34:11.426016,15.34435827,.0001389,53.1574,200.7377,78.4736,281.6422,0,U,64919,999,5276,.6376E-3,.21252E-3,0
STARLINK-34069,2025-157S,2026-06-26T18:42:17.474688,15.34392634,.00011393,53.1572,198.4101,91.2835,268.8298,0,U,64920,999,5283,.58327931E-3,.19377E-3,0
STARLINK-34699,2025-157T,2026-06-26T17:59:52.332864,15.34399309,.0001251,53.1552,198.2267,89.4704,270.6442,0,U,64921,999,5283,.73498175E-3,.24537E-3,0
STARLINK-34700,2025-157U,2026-06-26T11:32:41.862048,15.34392047,.0001002,53.1581,200.1005,97.4893,262.6224,0,U,64922,999,5273,.76731E-3,.25631E-3,0
